STARLINK-30893          
1 58724U 24002V   26017.49250276  .00059533  00000+0  19790-2 0  9997
2 58724  53.1609 107.9692 0003315 348.7335  11.3592 15.30636300114162
STARLINK-30856          
1 58725U 24002W   26018.64213217  .00002073  00000+0  82097-4 0  9999
2 58725  53.1606 102.3378 0001311  83.1181 276.9969 15.30194058114350
STARLINK-31115          
1 58729U 24005B   26018.61503710  .00000362  00000+0  41880-4 0  9997
2 58729  43.0033 133.3206 0001323 272.5978  87.4713 15.02534446112887
STARLINK-31180          
1 58732U 24005E   26018.70815309  .00000545  00000+0  55454-4 0  9996
2 58732  43.0044 133.1703 0001489 272.3143  87.7529 15.02532050112896
STARLINK-31164          
1 58733U 24005F   26018.67830268 -.00000404  00000+0 -14806-4 0  9996
2 58733  43.0039 133.7952 0001338 270.9853  89.0836 15.02530534112888
STARLINK-31152          
1 58734U 24005G   26018.67497229  .00000379  00000+0  43152-4 0  9998
2 58734  43.0049 133.7715 0001344 270.6478  89.4210 15.02527921112891
STARLINK-31157          
1 58735U 24005H   26018.73811894  .00000095  00000+0  22138-4 0  9990
2 58735  43.0037 133.3806 0001591 271.4525  88.6135 15.02532729112903
STARLINK-31076          
1 58736U 24005J   26018.66829242  .00001474  00000+0  12411-3 0  9993
2 58736  43.0030 133.7179 0001876 283.9678  76.0955 15.02563900112936
STARLINK-31101          
1 58737U 24005K   26018.66164891  .00000504  00000+0  52369-4 0  9996
2 58737  43.0027 133.6671 0001281 267.7526  92.3169 15.02529589112888
STARLINK-31108          
1 58738U 24005L   26018.66497935  .00000195  00000+0  29482-4 0  9991
2 58738  43.0042 133.6931 0001711 268.0115  92.0531 15.02536395112884
STARLINK-31042          
1 58739U 24005M   26018.65832363 -.00000670  00000+0 -34494-4 0  9998
2 58739  43.0013 133.6380 0001502 276.9660  83.1011 15.02534563112892
STARLINK-31159          
1 58740U 24005N   26018.65499264 -.00000286  00000+0 -60898-5 0  9990
2 58740  43.0021 133.6148 0001136 261.8004  98.2710 15.02536108112983
STARLINK-31148          
1 58741U 24005P   26018.71814532 -.00000661  00000+0 -33880-4 0  9994
2 58741  43.0026 133.2491 0001150 284.8178  75.2537 15.02534860112906
STARLINK-31151          
1 58742U 24005Q   26018.71480685 -.00005875  00000+0 -41988-3 0  9992
2 58742  43.0056 133.2241 0001567 267.4286  92.6377 15.02563572112998
STARLINK-31156          
1 58743U 24005R   26018.71148560 -.00000032  00000+0  12677-4 0  9999
2 58743  43.0036 133.1987 0001356 272.6153  87.4534 15.02531222112950
STARLINK-31167          
1 58744U 24005S   26018.99635850 -.00002658  00000+0 -87047-4 0  9993
2 58744  43.0027 354.9473 0001326 265.8204  94.2496 15.27599640114604
