[{"OBJECT_NAME":"STARLINK-30893","OBJECT_ID":"2024-002V","EPOCH":"2026-01-17T11:49:12.238464","MEAN_MOTION":15.306363,"ECCENTRICITY":0.00033154,"INCLINATION":53.1609,"RA_OF_ASC_NODE":107.9692,"ARG_OF_PERICENTER":348.7335,"MEAN_ANOMALY":11.3592,"EPHEMERIS_TYPE":0,"CLASSIFICATION_TYPE":"U","NORAD_CAT_ID":58724,"ELEMENT_SET_NO":999,"REV_AT_EPOCH":11416,"BSTAR":0.0019790455,"MEAN_MOTION_DOT":0.00059533,"MEAN_MOTION_DDOT":0},{"OBJECT_NAME":"STARLINK-30856","OBJECT_ID":"2024-002W","EPOCH":"2026-01-18T15:24:40.219488","MEAN_MOTION":15.30194058,"ECCENTRICITY":0.00013114,"INCLINATION":53.1606,"RA_OF_ASC_NODE":102.3378,"ARG_OF_PERICENTER":83.1181,"MEAN_ANOMALY":276.9969,"EPHEMERIS_TYPE":0,"CLASSIFICATION_TYPE":"U","NORAD_CAT_ID":58725,"ELEMENT_SET_NO":999,"REV_AT_EPOCH":11435,"BSTAR":8.2096824e-5,"MEAN_MOTION_DOT":2.073e-5,"MEAN_MOTION_DDOT":0},{"OBJECT_NAME":"STARLINK-31115","OBJECT_ID":"2024-005B","EPOCH":"2026-01-18T14:45:39.205440","MEAN_MOTION":15.02534446,"ECCENTRICITY":0.00013234,"INCLINATION":43.0033,"RA_OF_ASC_NODE":133.3206,"ARG_OF_PERICENTER":272.5978,"MEAN_ANOMALY":87.4713,"EPHEMERIS_TYPE":0,"CLASSIFICATION_TYPE":"U","NORAD_CAT_ID":58729,"ELEMENT_SET_NO":999,"REV_AT_EPOCH":11288,"BSTAR":4.1880201e-5,"MEAN_MOTION_DOT":3.62e-6,"MEAN_MOTION_DDOT":0},{"OBJECT_NAME":"STARLINK-31180","OBJECT_ID":"2024-005E","EPOCH":"2026-01-18T16:59:44.426976","MEAN_MOTION":15.0253205,"ECCENTRICITY":0.00014896,"INCLINATION":43.0044,"RA_OF_ASC_NODE":133.1703,"ARG_OF_PERICENTER":272.3143,"MEAN_ANOMALY":87.7529,"EPHEMERIS_TYPE":0,"CLASSIFICATION_TYPE":"U","NORAD_CAT_ID":58732,"ELEMENT_SET_NO":999,"REV_AT_EPOCH":11289,"BSTAR":5.5453944e-5,"MEAN_MOTION_DOT":5.45e-6,"MEAN_MOTION_DDOT":0},{"OBJECT_NAME":"STARLINK-31164","OBJECT_ID":"2024-005F","EPOCH":"2026-01-18T16:16:45.351552","MEAN_MOTION":15.02530534,"ECCENTRICITY":0.00013387,"INCLINATION":43.0039,"RA_OF_ASC_NODE":133.7952,"ARG_OF_PERICENTER":270.9853,"MEAN_ANOMALY":89.0836,"EPHEMERIS_TYPE":0,"CLASSIFICATION_TYPE":"U","NORAD_CAT_ID":58733,"ELEMENT_SET_NO":999,"REV_AT_EPOCH":11288,"BSTAR":-1.4806403e-5,"MEAN_MOTION_DOT":-4.04e-6,"MEAN_MOTION_DDOT":0},{"OBJECT_NAME":"STARLINK-31152","OBJECT_ID":"2024-005G","EPOCH":"2026-01-18T16:11:57.605856","MEAN_MOTION":15.02527921,"ECCENTRICITY":0.00013441,"INCLINATION":43.0049,"RA_OF_ASC_NODE":133.7715,"ARG_OF_PERICENTER":270.6478,"MEAN_ANOMALY":89.421,"EPHEMERIS_TYPE":0,"CLASSIFICATION_TYPE":"U","NORAD_CAT_ID":58734,"ELEMENT_SET_NO":999,"REV_AT_EPOCH":11289,"BSTAR":4.3151907e-5,"MEAN_MOTION_DOT":3.79e-6,"MEAN_MOTION_DDOT":0},{"OBJECT_NAME":"STARLINK-31157","OBJECT_ID":"2024-005H","EPOCH":"2026-01-18T17:42:53.476416","MEAN_MOTION":15.02532729,"ECCENTRICITY":0.00015917,"INCLINATION":43.0037,"RA_OF_ASC_NODE":133.3806,"ARG_OF_PERICENTER":271.4525,"MEAN_ANOMALY":88.6135,"EPHEMERIS_TYPE":0,"CLASSIFICATION_TYPE":"U","NORAD_CAT_ID":58735,"ELEMENT_SET_NO":999,"REV_AT_EPOCH":11290,"BSTAR":2.2138427e-5,"MEAN_MOTION_DOT":9.5e-7,"MEAN_MOTION_DDOT":0},{"OBJECT_NAME":"STARLINK-31076","OBJECT_ID":"2024-005J","EPOCH":"2026-01-18T16:02:20.465088","MEAN_MOTION":15.025639,"ECCENTRICITY":0.00018765,"INCLINATION":43.003,"RA_OF_ASC_NODE":133.7179,"ARG_OF_PERICENTER":283.9678,"MEAN_ANOMALY":76.0955,"EPHEMERIS_TYPE":0,"CLASSIFICATION_TYPE":"U","NORAD_CAT_ID":58736,"ELEMENT_SET_NO":999,"REV_AT_EPOCH":11293,"BSTAR":0.000124112,"MEAN_MOTION_DOT":1.474e-5,"MEAN_MOTION_DDOT":0},{"OBJECT_NAME":"STARLINK-31101","OBJECT_ID":"2024-005K","EPOCH":"2026-01-18T15:52:46.465824","MEAN_MOTION":15.02529589,"ECCENTRICITY":0.00012816,"INCLINATION":43.0027,"RA_OF_ASC_NODE":133.6671,"ARG_OF_PERICENTER":267.7526,"MEAN_ANOMALY":92.3169,"EPHEMERIS_TYPE":0,"CLASSIFICATION_TYPE":"U","NORAD_CAT_ID":58737,"ELEMENT_SET_NO":999,"REV_AT_EPOCH":11288,"BSTAR":5.2369351e-5,"MEAN_MOTION_DOT":5.04e-6,"MEAN_MOTION_DDOT":0},{"OBJECT_NAME":"STARLINK-31108","OBJECT_ID":"2024-005L","EPOCH":"2026-01-18T15:57:34.215840","MEAN_MOTION":15.02536395,"ECCENTRICITY":0.00017115,"INCLINATION":43.0042,"RA_OF_ASC_NODE":133.6931,"ARG_OF_PERICENTER":268.0115,"MEAN_ANOMALY":92.0531,"EPHEMERIS_TYPE":0,"CLASSIFICATION_TYPE":"U","NORAD_CAT_ID":58738,"ELEMENT_SET_NO":999,"REV_AT_EPOCH":11288,"BSTAR":2.9481858e-5,"MEAN_MOTION_DOT":1.95e-6,"MEAN_MOTION_DDOT":0},{"OBJECT_NAME":"STARLINK-31042","OBJECT_ID":"2024-005M","EPOCH":"2026-01-18T15:47:59.161632","MEAN_MOTION":15.02534563,"ECCENTRICITY":0.0001502,"INCLINATION":43.0013,"RA_OF_ASC_NODE":133.638,"ARG_OF_PERICENTER":276.966,"MEAN_ANOMALY":83.1011,"EPHEMERIS_TYPE":0,"CLASSIFICATION_TYPE":"U","NORAD_CAT_ID":58739,"ELEMENT_SET_NO":999,"REV_AT_EPOCH":11289,"BSTAR":-3.449416e-5,"MEAN_MOTION_DOT":-6.7e-6,"MEAN_MOTION_DDOT":0},{"OBJECT_NAME":"STARLINK-31159","OBJECT_ID":"2024-005N","EPOCH":"2026-01-18T15:43:11.364096","MEAN_MOTION":15.02536108,"ECCENTRICITY":0.00011364,"INCLINATION":43.0021,"RA_OF_ASC_NODE":133.6148,"ARG_OF_PERICENTER":261.8004,"MEAN_ANOMALY":98.271,"EPHEMERIS_TYPE":0,"CLASSIFICATION_TYPE":"U","NORAD_CAT_ID":58740,"ELEMENT_SET_NO":999,"REV_AT_EPOCH":11298,"BSTAR":-6.089789e-6,"MEAN_MOTION_DOT":-2.86e-6,"MEAN_MOTION_DDOT":0},{"OBJECT_NAME":"STARLINK-31148","OBJECT_ID":"2024-005P","EPOCH":"2026-01-18T17:14:07.755648","MEAN_MOTION":15.0253486,"ECCENTRICITY":0.00011506,"INCLINATION":43.0026,"RA_OF_ASC_NODE":133.2491,"ARG_OF_PERICENTER":284.8178,"MEAN_ANOMALY":75.2537,"EPHEMERIS_TYPE":0,"CLASSIFICATION_TYPE":"U","NORAD_CAT_ID":58741,"ELEMENT_SET_NO":999,"REV_AT_EPOCH":11290,"BSTAR":-3.3879667e-5,"MEAN_MOTION_DOT":-6.61e-6,"MEAN_MOTION_DDOT":0},{"OBJECT_NAME":"STARLINK-31151","OBJECT_ID":"2024-005Q","EPOCH":"2026-01-18T17:09:19.311840","MEAN_MOTION":15.02563572,"ECCENTRICITY":0.00015674,"INCLINATION":43.0056,"RA_OF_ASC_NODE":133.2241,"ARG_OF_PERICENTER":267.4286,"MEAN_ANOMALY":92.6377,"EPHEMERIS_TYPE":0,"CLASSIFICATION_TYPE":"U","NORAD_CAT_ID":58742,"ELEMENT_SET_NO":999,"REV_AT_EPOCH":11299,"BSTAR":-0.00041987525,"MEAN_MOTION_DOT":-5.875e-5,"MEAN_MOTION_DDOT":0},{"OBJECT_NAME":"STARLINK-31156","OBJECT_ID":"2024-005R","EPOCH":"2026-01-18T17:04:32.355840","MEAN_MOTION":15.02531222,"ECCENTRICITY":0.00013567,"INCLINATION":43.0036,"RA_OF_ASC_NODE":133.1987,"ARG_OF_PERICENTER":272.6153,"MEAN_ANOMALY":87.4534,"EPHEMERIS_TYPE":0,"CLASSIFICATION_TYPE":"U","NORAD_CAT_ID":58743,"ELEMENT_SET_NO":999,"REV_AT_EPOCH":11295,"BSTAR":1.2677061e-5,"MEAN_MOTION_DOT":-3.2e-7,"MEAN_MOTION_DDOT":0},{"OBJECT_NAME":"STARLINK-31167","OBJECT_ID":"2024-005S","EPOCH":"2026-01-18T23:54:45.374400","MEAN_MOTION":15.2759964,"ECCENTRICITY":0.00013261,"INCLINATION":43.0027,"RA_OF_ASC_NODE":354.9473,"ARG_OF_PERICENTER":265.8204,"MEAN_ANOMALY":94.2496,"EPHEMERIS_TYPE":0,"CLASSIFICATION_TYPE":"U","NORAD_CAT_ID":58744,"ELEMENT_SET_NO":999,"REV_AT_EPOCH":11460,"BSTAR":-8.7047025e-5,"MEAN_MOTION_DOT":-2.658e-5,"MEAN_MOTION_DDOT":0}]
